NORAD_CAT_ID,OBJECT_NAME,OBJECT_TYPE,EPOCH,MEAN_MOTION,ECCENTRICITY,INCLINATION,RA_OF_ASC_NODE,ARG_OF_PERICENTER,MEAN_ANOMALY,BSTAR,MEAN_MOTION_DOT,MEAN_MOTION_DDOT,TLE_LINE0,TLE_LINE1,TLE_LINE2,SEMIMAJOR_AXIS,PERIOD,APOGEE,PERIGEE,DECAYED
54193.0,STARLINK-5263,PAYLOAD,2024-02-15 12:22:50,15.08832774,0.0001701,53.2152,135.2922,80.6609,279.4576,2.3691e-05,8.9e-07,0.0,0 STARLINK-5263,1 54193U 22141AN  24046.51586152  .00000089  00000-0  23691-4 0  9993,2 54193  53.2152 135.2922 0001701  80.6609 279.4576 15.08832774 72299,6917.902,95.438,540.944,538.591,0.0
54193.0,STARLINK-5263,PAYLOAD,2024-02-16 12:13:36,15.08848766,0.0001724,53.2159,130.8287,98.8674,261.2513,0.00011601,1.559e-05,0.0,0 STARLINK-5263,1 54193U 22141AN  24047.50945399  .00001559  00000-0  11601-3 0  9995,2 54193  53.2159 130.8287 0001724  98.8674 261.2513 15.08848766 72679,6917.854,95.437,540.911,538.526,0.0
54193.0,STARLINK-5263,PAYLOAD,2024-02-16 13:48:59,15.08850344,0.0001762,53.2166,130.5319,99.7709,260.3482,0.00014164,1.967e-05,0.0,0 STARLINK-5263,1 54193U 22141AN  24047.57569293  .00001967  00000-0  14164-3 0  9997,2 54193  53.2166 130.5319 0001762  99.7709 260.3482 15.08850344 72457,6917.849,95.437,540.933,538.495,0.0
54193.0,STARLINK-5263,PAYLOAD,2024-02-16 15:24:22,15.08853457,0.0001711,53.2159,130.2326,101.0931,259.0253,0.00017992,2.578e-05,0.0,0 STARLINK-5263,1 54193U 22141AN  24047.64193097  .00002578  00000-0  17992-3 0  9991,2 54193  53.2159 130.2326 0001711 101.0931 259.0253 15.08853457 72462,6917.839,95.437,540.888,538.521,0.0
54193.0,STARLINK-5263,PAYLOAD,2024-02-17 12:04:24,15.08841762,0.0001458,53.2155,126.3701,98.649,261.4667,0.00019824,2.869e-05,0.0,0 STARLINK-5263,1 54193U 22141AN  24048.50305955  .00002869  00000-0  19824-3 0  9994,2 54193  53.2155 126.3701 0001458  98.6490 261.4667 15.08841762 72822,6917.875,95.437,540.749,538.731,0.0
54193.0,STARLINK-5263,PAYLOAD,2024-02-17 21:36:43,15.08842782,0.0001527,53.2146,124.5877,100.7362,259.3802,0.00013192,1.812e-05,0.0,0 STARLINK-5263,1 54193U 22141AN  24048.90049866  .00001812  00000-0  13192-3 0  9993,2 54193  53.2146 124.5877 0001527 100.7362 259.3802 15.08842782 72657,6917.872,95.437,540.793,538.681,0.0
54193.0,STARLINK-5263,PAYLOAD,2024-02-18 11:55:11,15.08846491,0.0001639,53.2165,121.9127,95.5926,264.5253,1.0085e-05,-1.28e-06,0.0,0 STARLINK-5263,1 54193U 22141AN  24049.49666095 -.00000128  00000-0  10085-4 0  9996,2 54193  53.2165 121.9127 0001639  95.5926 264.5253 15.08846491 72747,6917.861,95.437,540.859,538.592,0.0
54193.0,STARLINK-5263,PAYLOAD,2024-02-18 21:27:30,15.08839976,0.0001581,53.2162,120.1295,94.5852,265.5321,-7.9145e-05,-1.547e-05,0.0,0 STARLINK-5263,1 54193U 22141AN  24049.89410114 -.00001547  00000-0 -79145-4 0  9998,2 54193  53.2162 120.1295 0001581  94.5852 265.5321 15.08839976 72808,6917.88,95.438,540.839,538.652,0.0
54193.0,STARLINK-5263,PAYLOAD,2024-02-19 11:45:58,15.08838556,0.0001567,53.216,117.4519,101.6707,258.4461,1.164e-05,-1.03e-06,0.0,0 STARLINK-5263,1 54193U 22141AN  24050.49026415 -.00000103  00000-0  11640-4 0  9995,2 54193  53.2160 117.4519 0001567 101.6707 258.4461 15.08838556 72895,6917.885,95.438,540.834,538.666,0.0
54193.0,STARLINK-5263,PAYLOAD,2024-02-19 21:18:17,15.08840969,0.0001528,53.2162,115.6669,93.3052,266.8115,3.6599e-05,2.95e-06,0.0,0 STARLINK-5263,1 54193U 22141AN  24050.88770326  .00000295  00000-0  36599-4 0  9996,2 54193  53.2162 115.6669 0001528  93.3052 266.8115 15.08840969 72957,6917.877,95.437,540.799,538.685,0.0
54193.0,STARLINK-5263,PAYLOAD,2024-02-20 03:39:50,15.0883221,0.0001599,53.2162,114.478,91.099,269.0186,0.0002633,3.904e-05,0.0,0 STARLINK-5263,1 54193U 22141AN  24051.15266920  .00003904  00000-0  26330-3 0  9998,2 54193  53.2162 114.4780 0001599  91.0990 269.0186 15.08832210 73226,6917.904,95.438,540.875,538.663,0.0
54193.0,STARLINK-5263,PAYLOAD,2024-02-20 11:36:46,15.08838162,0.0001764,53.2172,112.9895,88.7649,271.3545,6.4668e-05,7.41e-06,0.0,0 STARLINK-5263,1 54193U 22141AN  24051.48386766  .00000741  00000-0  64668-4 0  9998,2 54193  53.2172 112.9895 0001764  88.7649 271.3545 15.08838162 73042,6917.886,95.438,540.971,538.531,0.0
54193.0,STARLINK-5263,PAYLOAD,2024-02-20 21:09:05,15.08838054,0.0001772,53.2171,111.2053,86.9218,273.1976,0.00021085,3.069e-05,0.0,0 STARLINK-5263,1 54193U 22141AN  24051.88130880  .00003069  00000-0  21085-3 0  9997,2 54193  53.2171 111.2053 0001772  86.9218 273.1976 15.08838054 73105,6917.886,95.438,540.977,538.525,0.0
54193.0,STARLINK-5263,PAYLOAD,2024-02-21 11:27:32,15.08848234,0.0001513,53.2155,108.5293,88.0974,272.0192,0.0001763,2.52e-05,0.0,0 STARLINK-5263,1 54193U 22141AN  24052.47746250  .00002520  00000-0  17630-3 0  9999,2 54193  53.2155 108.5293 0001513  88.0974 272.0192 15.08848234 73421,6917.855,95.437,540.767,538.674,0.0
54193.0,STARLINK-5263,PAYLOAD,2024-02-21 20:59:52,15.08836971,0.0001703,53.217,106.7447,80.8881,279.2304,1.9442e-05,2.1e-07,0.0,0 STARLINK-5263,1 54193U 22141AN  24052.87490995  .00000021  00000-0  19442-4 0  9993,2 54193  53.2170 106.7447 0001703  80.8881 279.2304 15.08836971 73257,6917.89,95.438,540.933,538.577,0.0
54193.0,STARLINK-5263,PAYLOAD,2024-02-22 09:42:57,15.08833417,0.0001336,53.2163,104.3625,93.7452,266.3692,0.00014177,1.969e-05,0.0,0 STARLINK-5263,1 54193U 22141AN  24053.40483206  .00001969  00000-0  14177-3 0  9991,2 54193  53.2163 104.3625 0001336  93.7452 266.3692 15.08833417 73338,6917.901,95.438,540.69,538.841,0.0
54193.0,STARLINK-5263,PAYLOAD,2024-02-22 20:50:39,15.08841507,0.0001498,53.2163,102.2816,92.1841,267.9323,7.0721e-05,8.38e-06,0.0,0 STARLINK-5263,1 54193U 22141AN  24053.86850926  .00000838  00000-0  70721-4 0  9990,2 54193  53.2163 102.2816 0001498  92.1841 267.9323 15.08841507 73406,6917.876,95.437,540.777,538.704,0.0
54193.0,STARLINK-5263,PAYLOAD,2024-02-23 09:33:43,15.08854326,0.0001501,53.2143,99.9028,88.9715,271.145,0.00028599,4.268e-05,0.0,0 STARLINK-5263,1 54193U 22141AN  24054.39842146  .00004268  00000-0  28599-3 0  9990,2 54193  53.2143  99.9028 0001501  88.9715 271.1450 15.08854326 73714,6917.837,95.437,540.74,538.663,0.0
54193.0,STARLINK-5263,PAYLOAD,2024-02-24 09:24:31,15.08841782,0.0001377,53.2153,95.4418,84.1476,275.9673,0.00010598,1.399e-05,0.0,0 STARLINK-5263,1 54193U 22141AN  24055.39202835  .00001399  00000-0  10598-3 0  9998,2 54193  53.2153  95.4418 0001377  84.1476 275.9673 15.08841782 73869,6917.875,95.437,540.693,538.787,0.0
54193.0,STARLINK-5263,PAYLOAD,2024-02-24 12:35:17,15.08845328,0.0001271,53.2154,94.8475,80.5642,279.5494,0.00015727,2.216e-05,0.0,0 STARLINK-5263,1 54193U 22141AN  24055.52450689  .00002216  00000-0  15727-3 0  9993,2 54193  53.2154  94.8475 0001271  80.5642 279.5494 15.08845328 73652,6917.864,95.437,540.608,538.85,0.0
54193.0,STARLINK-5263,PAYLOAD,2024-02-25 09:15:17,15.08848537,0.0001431,53.2159,90.9813,85.1621,274.9534,5.2289e-05,5.44e-06,0.0,0 STARLINK-5263,1 54193U 22141AN  24056.38562442  .00000544  00000-0  52289-4 0  9996,2 54193  53.2159  90.9813 0001431  85.1621 274.9534 15.08848537 73789,6917.854,95.437,540.709,538.729,0.0
54193.0,STARLINK-5263,PAYLOAD,2024-02-26 09:06:05,15.08843225,0.0001548,53.2167,86.5255,110.4779,249.638,0.00013958,1.934e-05,0.0,0 STARLINK-5263,1 54193U 22141AN  24057.37922590  .00001934  00000-0  13958-3 0  9993,2 54193  53.2167  86.5255 0001548 110.4779 249.6380 15.08843225 74164,6917.871,95.437,540.806,538.665,0.0
54193.0,STARLINK-5263,PAYLOAD,2024-02-27 10:32:16,15.08835765,0.0001536,53.2169,81.7671,99.876,260.2406,2.2234e-05,6.6e-07,0.0,0 STARLINK-5263,1 54193U 22141AN  24058.43907534  .00000066  00000-0  22234-4 0  9995,2 54193  53.2169  81.7671 0001536  99.8760 260.2406 15.08835765 74328,6917.893,95.438,540.821,538.696,0.0
54193.0,STARLINK-5263,PAYLOAD,2024-02-27 12:07:39,15.0883611,0.0001585,53.2173,81.4649,91.842,268.2754,1.9851e-05,2.8e-07,0.0,0 STARLINK-5263,1 54193U 22141AN  24058.50531528  .00000028  00000-0  19851-4 0  9998,2 54193  53.2173  81.4649 0001585  91.8420 268.2754 15.08836110 74109,6917.892,95.438,540.854,538.661,0.0
54193.0,STARLINK-5263,PAYLOAD,2024-02-27 18:29:11,15.08842116,0.000154,53.2171,80.2751,86.1233,273.9936,-3.2868e-05,-8.11e-06,0.0,0 STARLINK-5263,1 54193U 22141AN  24058.77027269 -.00000811  00000-0 -32868-4 0  9994,2 54193  53.2171  80.2751 0001540  86.1233 273.9936 15.08842116 74140,6917.874,95.437,540.804,538.674,0.0
54193.0,STARLINK-5263,PAYLOAD,2024-02-28 00:50:44,15.0877285,0.0001931,53.217,79.086,96.087,264.0342,0.0008732,0.00013611,0.0,0 STARLINK-5263,1 54193U 22141AN  24059.03523858  .00013611  00000-0  87320-3 0  9991,2 54193  53.2170  79.0860 0001931  96.0870 264.0342 15.08772850 74416,6918.086,95.442,541.287,538.615,0.0
54193.0,STARLINK-5263,PAYLOAD,2024-02-28 10:23:02,15.08844851,0.0001581,53.2168,77.3022,88.0964,272.0209,0.00011097,1.479e-05,0.0,0 STARLINK-5263,1 54193U 22141AN  24059.43266818  .00001479  00000-0  11097-3 0  9992,2 54193  53.2168  77.3022 0001581  88.0964 272.0209 15.08844851 74478,6917.866,95.437,540.824,538.637,0.0
54193.0,STARLINK-5263,PAYLOAD,2024-02-28 18:19:58,15.08837803,0.0001588,53.2169,75.8174,91.3744,268.743,7.8294e-05,9.58e-06,0.0,0 STARLINK-5263,1 54193U 22141AN  24059.76387386  .00000958  00000-0  78294-4 0  9996,2 54193  53.2169  75.8174 0001588  91.3744 268.7430 15.08837803 74523,6917.887,95.438,540.851,538.654,0.0
54193.0,STARLINK-5263,PAYLOAD,2024-02-29 10:13:50,15.08838997,0.0001464,53.2157,72.8412,88.3299,271.7861,7.9414e-05,9.76e-06,0.0,0 STARLINK-5263,1 54193U 22141AN  24060.42627450  .00000976  00000-0  79414-4 0  9995,2 54193  53.2157  72.8412 0001464  88.3299 271.7861 15.08838997 74398,6917.883,95.438,540.761,538.736,0.0
54193.0,STARLINK-5263,PAYLOAD,2024-02-29 18:10:45,15.08839826,0.0001463,53.2161,71.3535,90.0552,270.0608,7.9388e-05,9.76e-06,0.0,0 STARLINK-5263,1 54193U 22141AN  24060.75747377  .00000976  00000-0  79388-4 0  9992,2 54193  53.2161  71.3535 0001463  90.0552 270.0608 15.08839826 74443,6917.881,95.438,540.758,538.734,0.0
